<?xml version='1.0' encoding='UTF-8' standalone='yes'?>
<q:quakeml xmlns="http://quakeml.org/xmlns/bed/1.2" xmlns:q="http://quakeml.org/xmlns/quakeml" xmlns:mars="http://quakeml.org/xmlns/bed/1.2/mars" xmlns:mq="http://quakeml.org/xmlns/marsquake/1.0" xmlns:sst="http://quakeml.org/xmlns/singlestation/1.0">
  <eventParameters publicID="smi:insight.mqs/EventParameters">
    <event publicID="smi:insight.mqs/mqs2019tfir">
      <description>
        <text>Elysium Southwest</text>
        <type>region name</type>
      </description>
      <description>
        <text>S0300a</text>
        <type>earthquake name</type>
      </description>
      <typeCertainty>suspected</typeCertainty>
      <creationInfo>
        <agencyID>mqs</agencyID>
        <author>scevent@sc3mars-op</author>
        <creationTime>2019-10-02T13:43:45.98426Z</creationTime>
      </creationInfo>
      <origin publicID="smi:insight.mqs/Origin/20191002134539.551726.163930">
        <arrival publicID="smi:insight.mqs/Pick/20191002134539.551435.163929_Origin/20191002134539.551726.163930">
          <azimuth>108.8539635</azimuth>
          <distance>4.951151082e-05</distance>
          <pickID>smi:insight.mqs/Pick/20191002134539.551435.163929</pickID>
          <phase>start</phase>
          <timeWeight>1</timeWeight>
        </arrival>
        <arrival publicID="smi:insight.mqs/Pick/20191002134300.087187.160659_Origin/20191002134539.551726.163930">
          <azimuth>108.8539635</azimuth>
          <distance>4.951151082e-05</distance>
          <pickID>smi:insight.mqs/Pick/20191002134300.087187.160659</pickID>
          <phase>Sg</phase>
          <timeWeight>1</timeWeight>
        </arrival>
        <arrival publicID="smi:insight.mqs/Pick/20191002134300.087102.160658_Origin/20191002134539.551726.163930">
          <azimuth>108.8539635</azimuth>
          <distance>4.951151082e-05</distance>
          <pickID>smi:insight.mqs/Pick/20191002134300.087102.160658</pickID>
          <phase>end</phase>
          <timeWeight>1</timeWeight>
        </arrival>
        <arrival publicID="smi:insight.mqs/Pick/20191002134300.087011.160657_Origin/20191002134539.551726.163930">
          <azimuth>108.8539635</azimuth>
          <distance>4.951151082e-05</distance>
          <pickID>smi:insight.mqs/Pick/20191002134300.087011.160657</pickID>
          <phase>Pg</phase>
          <timeWeight>1</timeWeight>
        </arrival>
        <arrival publicID="smi:insight.mqs/Pick/20191002134300.086915.160656_Origin/20191002134539.551726.163930">
          <azimuth>108.8539635</azimuth>
          <distance>4.951151082e-05</distance>
          <pickID>smi:insight.mqs/Pick/20191002134300.086915.160656</pickID>
          <phase>Peak_M2.4</phase>
          <timeWeight>1</timeWeight>
        </arrival>
        <arrival publicID="smi:insight.mqs/Pick/20191002134300.086809.160655_Origin/20191002134539.551726.163930">
          <azimuth>108.8539635</azimuth>
          <distance>4.951151082e-05</distance>
          <pickID>smi:insight.mqs/Pick/20191002134300.086809.160655</pickID>
          <phase>noise_end</phase>
          <timeWeight>1</timeWeight>
        </arrival>
        <arrival publicID="smi:insight.mqs/Pick/20191002134300.086586.160654_Origin/20191002134539.551726.163930">
          <azimuth>108.8539635</azimuth>
          <distance>4.951151082e-05</distance>
          <pickID>smi:insight.mqs/Pick/20191002134300.086586.160654</pickID>
          <phase>noise_start</phase>
          <timeWeight>1</timeWeight>
        </arrival>
        <time>
          <value>2019-10-01T07:14:39.0000Z</value>
        </time>
        <longitude>
          <value>135.6234</value>
        </longitude>
        <latitude>
          <value>4.5024</value>
        </latitude>
        <quality>
          <depthPhaseCount>0</depthPhaseCount>
        </quality>
        <evaluationMode>manual</evaluationMode>
        <creationInfo>
          <agencyID>mqs</agencyID>
          <author>mvd</author>
          <creationTime>2019-10-02T13:45:39.551785Z</creationTime>
        </creationInfo>
        <depth>
          <value>50000</value>
        </depth>
        <evaluationStatus>preliminary</evaluationStatus>
        <mars:locationQuality>http://quakeml.org/vocab/marsquake/1.0/MarsLocationQualityType#C</mars:locationQuality>
      </origin>
      <pick publicID="smi:insight.mqs/Pick/20191002134539.551435.163929">
        <phaseHint>start</phaseHint>
        <evaluationMode>manual</evaluationMode>
        <creationInfo>
          <agencyID>mqs</agencyID>
          <author>mvd</author>
          <creationTime>2019-10-02T13:45:39.551591Z</creationTime>
        </creationInfo>
        <time>
          <value>2019-10-01T07:20:00.687926Z</value>
          <lowerUncertainty>2</lowerUncertainty>
          <upperUncertainty>2</upperUncertainty>
        </time>
        <waveformID networkCode="XB" stationCode="ELYSE" locationCode="02" channelCode="BHZ"/>
      </pick>
      <pick publicID="smi:insight.mqs/Pick/20191002134300.087187.160659">
        <phaseHint>Sg</phaseHint>
        <evaluationMode>manual</evaluationMode>
        <creationInfo>
          <agencyID>mqs</agencyID>
          <author>mvd</author>
          <creationTime>2019-10-02T13:43:00.087248Z</creationTime>
        </creationInfo>
        <time>
          <value>2019-10-01T07:23:07.775181Z</value>
          <lowerUncertainty>20</lowerUncertainty>
          <upperUncertainty>20</upperUncertainty>
        </time>
        <waveformID networkCode="XB" stationCode="ELYSE" locationCode="02" channelCode="BHZ"/>
      </pick>
      <pick publicID="smi:insight.mqs/Pick/20191002134300.087102.160658">
        <phaseHint>end</phaseHint>
        <evaluationMode>manual</evaluationMode>
        <creationInfo>
          <agencyID>mqs</agencyID>
          <author>mvd</author>
          <creationTime>2019-10-02T13:43:00.08714Z</creationTime>
        </creationInfo>
        <time>
          <value>2019-10-01T07:30:48.330939Z</value>
          <lowerUncertainty>2</lowerUncertainty>
          <upperUncertainty>2</upperUncertainty>
        </time>
        <waveformID networkCode="XB" stationCode="ELYSE" locationCode="02" channelCode="BHZ"/>
      </pick>
      <pick publicID="smi:insight.mqs/Pick/20191002134300.087011.160657">
        <phaseHint>Pg</phaseHint>
        <evaluationMode>manual</evaluationMode>
        <creationInfo>
          <agencyID>mqs</agencyID>
          <author>mvd</author>
          <creationTime>2019-10-02T13:43:00.087053Z</creationTime>
        </creationInfo>
        <time>
          <value>2019-10-01T07:20:06.77856Z</value>
          <lowerUncertainty>20</lowerUncertainty>
          <upperUncertainty>20</upperUncertainty>
        </time>
        <waveformID networkCode="XB" stationCode="ELYSE" locationCode="02" channelCode="BHZ"/>
      </pick>
      <pick publicID="smi:insight.mqs/Pick/20191002134300.086915.160656">
        <phaseHint>Peak_M2.4</phaseHint>
        <evaluationMode>manual</evaluationMode>
        <creationInfo>
          <agencyID>mqs</agencyID>
          <author>mvd</author>
          <creationTime>2019-10-02T13:43:00.086955Z</creationTime>
        </creationInfo>
        <time>
          <value>2019-10-01T07:24:06.364057Z</value>
        </time>
        <waveformID networkCode="XB" stationCode="ELYSE" locationCode="02" channelCode="BHZ"/>
      </pick>
      <pick publicID="smi:insight.mqs/Pick/20191002134300.086809.160655">
        <phaseHint>noise_end</phaseHint>
        <evaluationMode>manual</evaluationMode>
        <creationInfo>
          <agencyID>mqs</agencyID>
          <author>mvd</author>
          <creationTime>2019-10-02T13:43:00.086866Z</creationTime>
        </creationInfo>
        <time>
          <value>2019-10-01T07:18:02.136245Z</value>
        </time>
        <waveformID networkCode="XB" stationCode="ELYSE" locationCode="02" channelCode="BHN"/>
      </pick>
      <pick publicID="smi:insight.mqs/Pick/20191002134300.086586.160654">
        <phaseHint>noise_start</phaseHint>
        <evaluationMode>manual</evaluationMode>
        <creationInfo>
          <agencyID>mqs</agencyID>
          <author>mvd</author>
          <creationTime>2019-10-02T13:43:00.086721Z</creationTime>
        </creationInfo>
        <time>
          <value>2019-10-01T07:15:50.364012Z</value>
        </time>
        <waveformID networkCode="XB" stationCode="ELYSE" locationCode="02" channelCode="BHZ"/>
      </pick>
      <preferredOriginID>smi:insight.mqs/Origin/20191002134539.551726.163930</preferredOriginID>
      <type>other event</type>
      <mars:type>http://quakeml.org/vocab/marsquake/1.0/MarsEventType#2.4_HZ</mars:type>
      <mars:typeCertainty>suspected</mars:typeCertainty>
    </event>
    <event publicID="smi:insight.mqs/mqs2019tdlq">
      <description>
        <text>Elysium Southwest</text>
        <type>region name</type>
      </description>
      <description>
        <text>S0299b</text>
        <type>earthquake name</type>
      </description>
      <typeCertainty>suspected</typeCertainty>
      <creationInfo>
        <agencyID>mqs</agencyID>
        <author>scevent@sc3mars-op</author>
        <creationTime>2019-10-02T13:09:03.882114Z</creationTime>
      </creationInfo>
      <origin publicID="smi:insight.mqs/Origin/20191002130711.497343.153154">
        <arrival publicID="smi:insight.mqs/Pick/20191002125639.536585.153141_Origin/20191002130711.497343.153154">
          <azimuth>108.8539635</azimuth>
          <distance>4.951151082e-05</distance>
          <pickID>smi:insight.mqs/Pick/20191002125639.536585.153141</pickID>
          <phase>Sg</phase>
          <timeWeight>1</timeWeight>
        </arrival>
        <arrival publicID="smi:insight.mqs/Pick/20191002125639.536499.153140_Origin/20191002130711.497343.153154">
          <azimuth>108.8539635</azimuth>
          <distance>4.951151082e-05</distance>
          <pickID>smi:insight.mqs/Pick/20191002125639.536499.153140</pickID>
          <phase>Pg</phase>
          <timeWeight>1</timeWeight>
        </arrival>
        <arrival publicID="smi:insight.mqs/Pick/20191002125639.536411.153139_Origin/20191002130711.497343.153154">
          <azimuth>108.8539635</azimuth>
          <distance>4.951151082e-05</distance>
          <pickID>smi:insight.mqs/Pick/20191002125639.536411.153139</pickID>
          <phase>Peak_M2.4</phase>
          <timeWeight>1</timeWeight>
        </arrival>
        <arrival publicID="smi:insight.mqs/Pick/20191002125639.536324.153138_Origin/20191002130711.497343.153154">
          <azimuth>108.8539635</azimuth>
          <distance>4.951151082e-05</distance>
          <pickID>smi:insight.mqs/Pick/20191002125639.536324.153138</pickID>
          <phase>noise_end</phase>
          <timeWeight>1</timeWeight>
        </arrival>
        <arrival publicID="smi:insight.mqs/Pick/20191002125639.536231.153137_Origin/20191002130711.497343.153154">
          <azimuth>108.8539635</azimuth>
          <distance>4.951151082e-05</distance>
          <pickID>smi:insight.mqs/Pick/20191002125639.536231.153137</pickID>
          <phase>noise_start</phase>
          <timeWeight>1</timeWeight>
        </arrival>
        <arrival publicID="smi:insight.mqs/Pick/20191002125639.536126.153136_Origin/20191002130711.497343.153154">
          <azimuth>108.8539635</azimuth>
          <distance>4.951151082e-05</distance>
          <pickID>smi:insight.mqs/Pick/20191002125639.536126.153136</pickID>
          <phase>end</phase>
          <timeWeight>1</timeWeight>
        </arrival>
        <arrival publicID="smi:insight.mqs/Pick/20191002125639.535935.153135_Origin/20191002130711.497343.153154">
          <azimuth>108.8539635</azimuth>
          <distance>4.951151082e-05</distance>
          <pickID>smi:insight.mqs/Pick/20191002125639.535935.153135</pickID>
          <phase>start</phase>
          <timeWeight>1</timeWeight>
        </arrival>
        <time>
          <value>2019-09-30T06:28:12.0000Z</value>
        </time>
        <longitude>
          <value>135.6234</value>
        </longitude>
        <latitude>
          <value>4.5024</value>
        </latitude>
        <quality>
          <depthPhaseCount>0</depthPhaseCount>
        </quality>
        <evaluationMode>manual</evaluationMode>
        <creationInfo>
          <agencyID>mqs</agencyID>
          <author>mvd</author>
          <creationTime>2019-10-02T13:07:11.497461Z</creationTime>
        </creationInfo>
        <depth>
          <value>50000</value>
        </depth>
        <evaluationStatus>preliminary</evaluationStatus>
        <mars:locationQuality>http://quakeml.org/vocab/marsquake/1.0/MarsLocationQualityType#C</mars:locationQuality>
      </origin>
      <pick publicID="smi:insight.mqs/Pick/20191002125639.536585.153141">
        <phaseHint>Sg</phaseHint>
        <evaluationMode>manual</evaluationMode>
        <creationInfo>
          <agencyID>mqs</agencyID>
          <author>mvd</author>
          <creationTime>2019-10-02T12:56:39.536624Z</creationTime>
        </creationInfo>
        <time>
          <value>2019-09-30T06:35:29.066124Z</value>
          <lowerUncertainty>20</lowerUncertainty>
          <upperUncertainty>20</upperUncertainty>
        </time>
        <waveformID networkCode="XB" stationCode="ELYSE" locationCode="02" channelCode="BHZ"/>
      </pick>
      <pick publicID="smi:insight.mqs/Pick/20191002125639.536499.153140">
        <phaseHint>Pg</phaseHint>
        <evaluationMode>manual</evaluationMode>
        <creationInfo>
          <agencyID>mqs</agencyID>
          <author>mvd</author>
          <creationTime>2019-10-02T12:56:39.536538Z</creationTime>
        </creationInfo>
        <time>
          <value>2019-09-30T06:31:30.246249Z</value>
          <lowerUncertainty>10</lowerUncertainty>
          <upperUncertainty>10</upperUncertainty>
        </time>
        <waveformID networkCode="XB" stationCode="ELYSE" locationCode="02" channelCode="BHZ"/>
      </pick>
      <pick publicID="smi:insight.mqs/Pick/20191002125639.536411.153139">
        <phaseHint>Peak_M2.4</phaseHint>
        <evaluationMode>manual</evaluationMode>
        <creationInfo>
          <agencyID>mqs</agencyID>
          <author>mvd</author>
          <creationTime>2019-10-02T12:56:39.53645Z</creationTime>
        </creationInfo>
        <time>
          <value>2019-09-30T06:36:12.329087Z</value>
        </time>
        <waveformID networkCode="XB" stationCode="ELYSE" locationCode="02" channelCode="BHZ"/>
      </pick>
      <pick publicID="smi:insight.mqs/Pick/20191002125639.536324.153138">
        <phaseHint>noise_end</phaseHint>
        <evaluationMode>manual</evaluationMode>
        <creationInfo>
          <agencyID>mqs</agencyID>
          <author>mvd</author>
          <creationTime>2019-10-02T12:56:39.536365Z</creationTime>
        </creationInfo>
        <time>
          <value>2019-09-30T06:27:45.452247Z</value>
        </time>
        <waveformID networkCode="XB" stationCode="ELYSE" locationCode="02" channelCode="BHZ"/>
      </pick>
      <pick publicID="smi:insight.mqs/Pick/20191002125639.536231.153137">
        <phaseHint>noise_start</phaseHint>
        <evaluationMode>manual</evaluationMode>
        <creationInfo>
          <agencyID>mqs</agencyID>
          <author>mvd</author>
          <creationTime>2019-10-02T12:56:39.536275Z</creationTime>
        </creationInfo>
        <time>
          <value>2019-09-30T06:24:33.839221Z</value>
        </time>
        <waveformID networkCode="XB" stationCode="ELYSE" locationCode="02" channelCode="BHZ"/>
      </pick>
      <pick publicID="smi:insight.mqs/Pick/20191002125639.536126.153136">
        <phaseHint>end</phaseHint>
        <evaluationMode>manual</evaluationMode>
        <creationInfo>
          <agencyID>mqs</agencyID>
          <author>mvd</author>
          <creationTime>2019-10-02T12:56:39.53618Z</creationTime>
        </creationInfo>
        <time>
          <value>2019-09-30T06:43:58.644719Z</value>
          <lowerUncertainty>2</lowerUncertainty>
          <upperUncertainty>2</upperUncertainty>
        </time>
        <waveformID networkCode="XB" stationCode="ELYSE" locationCode="02" channelCode="BHZ"/>
      </pick>
      <pick publicID="smi:insight.mqs/Pick/20191002125639.535935.153135">
        <phaseHint>start</phaseHint>
        <evaluationMode>manual</evaluationMode>
        <creationInfo>
          <agencyID>mqs</agencyID>
          <author>mvd</author>
          <creationTime>2019-10-02T12:56:39.536036Z</creationTime>
        </creationInfo>
        <time>
          <value>2019-09-30T06:31:30.681591Z</value>
          <lowerUncertainty>2</lowerUncertainty>
          <upperUncertainty>2</upperUncertainty>
        </time>
        <waveformID networkCode="XB" stationCode="ELYSE" locationCode="02" channelCode="BHZ"/>
      </pick>
      <preferredOriginID>smi:insight.mqs/Origin/20191002130711.497343.153154</preferredOriginID>
      <type>other event</type>
      <mars:type>http://quakeml.org/vocab/marsquake/1.0/MarsEventType#2.4_HZ</mars:type>
      <mars:typeCertainty>suspected</mars:typeCertainty>
    </event>
    <event publicID="smi:insight.mqs/mqs2019tcdk">
      <description>
        <text>Elysium Southwest</text>
        <type>region name</type>
      </description>
      <description>
        <text>S0299a</text>
        <type>earthquake name</type>
      </description>
      <typeCertainty>suspected</typeCertainty>
      <creationInfo>
        <agencyID>mqs</agencyID>
        <author>scevent@sc3mars-op</author>
        <creationTime>2019-09-30T12:02:30.612824Z</creationTime>
      </creationInfo>
      <origin publicID="smi:insight.mqs/Origin/20191002124241.769629.145619">
        <arrival publicID="smi:insight.mqs/Pick/20191002124241.769525.145618_Origin/20191002124241.769629.145619">
          <azimuth>108.8539635</azimuth>
          <distance>4.951151082e-05</distance>
          <pickID>smi:insight.mqs/Pick/20191002124241.769525.145618</pickID>
          <phase>end</phase>
          <timeWeight>1</timeWeight>
        </arrival>
        <arrival publicID="smi:insight.mqs/Pick/20191002124241.769373.145617_Origin/20191002124241.769629.145619">
          <azimuth>108.8539635</azimuth>
          <distance>4.951151082e-05</distance>
          <pickID>smi:insight.mqs/Pick/20191002124241.769373.145617</pickID>
          <phase>start</phase>
          <timeWeight>1</timeWeight>
        </arrival>
        <arrival publicID="smi:insight.mqs/Pick/20191002124224.522003.145615_Origin/20191002124241.769629.145619">
          <azimuth>108.8539635</azimuth>
          <distance>4.951151082e-05</distance>
          <pickID>smi:insight.mqs/Pick/20191002124224.522003.145615</pickID>
          <phase>Sg</phase>
          <timeWeight>1</timeWeight>
        </arrival>
        <arrival publicID="smi:insight.mqs/Pick/20191002124224.521832.145614_Origin/20191002124241.769629.145619">
          <azimuth>108.8539635</azimuth>
          <distance>4.951151082e-05</distance>
          <pickID>smi:insight.mqs/Pick/20191002124224.521832.145614</pickID>
          <phase>Pg</phase>
          <timeWeight>1</timeWeight>
        </arrival>
        <arrival publicID="smi:insight.mqs/Pick/20190930120140.818177.94089_Origin/20191002124241.769629.145619">
          <azimuth>108.8539635</azimuth>
          <distance>4.951151082e-05</distance>
          <pickID>smi:insight.mqs/Pick/20190930120140.818177.94089</pickID>
          <phase>noise_start</phase>
          <timeWeight>1</timeWeight>
        </arrival>
        <arrival publicID="smi:insight.mqs/Pick/20190930120140.818352.94090_Origin/20191002124241.769629.145619">
          <azimuth>108.8539635</azimuth>
          <distance>4.951151082e-05</distance>
          <pickID>smi:insight.mqs/Pick/20190930120140.818352.94090</pickID>
          <phase>noise_end</phase>
          <timeWeight>1</timeWeight>
        </arrival>
        <arrival publicID="smi:insight.mqs/Pick/20191001152052.004244.198189_Origin/20191002124241.769629.145619">
